*******************************************************************************
JPL/HORIZONS               2855 Bastian (1931 TB2)         2023-Sep-04 11:20:19
Rec #:    2855 (+COV) Soln.date: 2023-Aug-23_03:05:12   # obs: 2791 (1931-2023)
 
IAU76/J2000 helio. ecliptic osc. elements (au, days, deg., period=Julian yrs):
 
  EPOCH=  2457763.5 ! 2017-Jan-10.00 (TDB)         Residual RMS= .2808
   EC= .1675299813969401   QR= 2.042693361929944   TP= 2457715.0886901524
   OM= 339.2013817325129   W=  99.93417603967724   IN= 8.14821232862819
   A= 2.453774089495402    MA= 12.41363703744006   ADIST= 2.864854817060861
   PER= 3.84379            N= .256420185           ANGMOM= .026565442
   DAN= 2.45589            DDN= 2.31791            L= 79.23482009999999
   B= 8.025231399999999    MOID= 1.07650006        TP= 2016-Nov-22.5886901524
 
Asteroid physical parameters (km, seconds, rotational period in hours):
   GM= n.a.                RAD= 4.511              ROTPER= 3.516
   H= 13.37                G= .150                 B-V= n.a.
                           ALBEDO= .105            STYP= Sl

ASTEROID comments: 
1: soln ref.= JPL#45, OCC=0
2: source=ORB
*******************************************************************************


*******************************************************************************
Ephemeris / API_USER Mon Sep  4 11:20:19 2023 Pasadena, USA      / Horizons
*******************************************************************************
Target body name: 2855 Bastian (1931 TB2)         {source: JPL#45}
Center body name: Solar System Barycenter (0)     {source: DE441}
Center-site name: BODY CENTER
*******************************************************************************
Start time      : A.D. 2023-Aug-12 00:00:00.0000 TDB
Stop  time      : A.D. 2023-Aug-13 00:00:00.0000 TDB
Step-size       : 2880 minutes
*******************************************************************************
Center geodetic : 0.0, 0.0, 0.0                   {E-lon(deg),Lat(deg),Alt(km)}
Center cylindric: 0.0, 0.0, 0.0                   {E-lon(deg),Dxy(km),Dz(km)}
Center radii    : (undefined)
Small perturbers: Yes                             {source: SB441-N16}
Output units    : KM-S
Calendar mode   : Mixed Julian/Gregorian
Output type     : GEOMETRIC cartesian states
Output format   : 2 (position and velocity)
Reference frame : Ecliptic of J2000.0
*******************************************************************************
Initial IAU76/J2000 heliocentric ecliptic osculating elements (au, days, deg.):
  EPOCH=  2457763.5 ! 2017-Jan-10.00 (TDB)         Residual RMS= .2808         
   EC= .1675299813969401   QR= 2.042693361929944   TP= 2457715.0886901524      
   OM= 339.2013817325129   W=  99.93417603967724   IN= 8.14821232862819        
  Equivalent ICRF heliocentric cartesian coordinates (au, au/d):
   X=-2.470337282561230E-01  Y= 1.755212928414694E+00  Z= 1.042733535061288E+00
  VX=-1.287562428063811E-02 VY=-5.168375841724014E-04 VZ=-1.068758921042762E-03
Asteroid physical parameters (km, seconds, rotational period in hours):        
   GM= n.a.                RAD= 4.511              ROTPER= 3.516               
   H= 13.37                G= .150                 B-V= n.a.                   
                           ALBEDO= .105            STYP= Sl                    
*******************************************************************************
JDTDB
   X     Y     Z
   VX    VY    VZ
*******************************************************************************
$$SOE
2460168.500000000 = A.D. 2023-Aug-12 00:00:00.0000 TDB 
 X = 3.243081302387762E+08 Y =-1.932206582580780E+08 Z =-9.069296441700727E+06
 VX= 6.589457051197001E+00 VY= 1.699320033909943E+01 VZ= 2.610249696038188E+00
$$EOE
*******************************************************************************
 
TIME

  Barycentric Dynamical Time ("TDB" or T_eph) output was requested. This
continuous coordinate time is equivalent to the relativistic proper time
of a clock at rest in a reference frame co-moving with the solar system
barycenter but outside the system's gravity well. It is the independent
variable in the solar system relativistic equations of motion.

  TDB runs at a uniform rate of one SI second per second and is independent
of irregularities in Earth's rotation.
 
CALENDAR SYSTEM

  Mixed calendar mode was active such that calendar dates after AD 1582-Oct-15
(if any) are in the modern Gregorian system. Dates prior to 1582-Oct-5 (if any)
are in the Julian calendar system, which is automatically extended for dates
prior to its adoption on 45-Jan-1 BC.  The Julian calendar is useful for
matching historical dates. The Gregorian calendar more accurately corresponds
to the Earth's orbital motion and seasons. A "Gregorian-only" calendar mode is
available if such physical events are the primary interest.

REFERENCE FRAME AND COORDINATES

  Ecliptic at the standard reference epoch

    Reference epoch: J2000.0
    X-Y plane: adopted Earth orbital plane at the reference epoch
               Note: IAU76 obliquity of 84381.448 arcseconds wrt ICRF X-Y plane
    X-axis   : ICRF
    Z-axis   : perpendicular to the X-Y plane in the directional (+ or -) sense
               of Earth's north pole at the reference epoch.

  Symbol meaning:

    JDTDB    Julian Day Number, Barycentric Dynamical Time
      X      X-component of position vector (km)
      Y      Y-component of position vector (km)
      Z      Z-component of position vector (km)
      VX     X-component of velocity vector (km/sec)                           
      VY     Y-component of velocity vector (km/sec)                           
      VZ     Z-component of velocity vector (km/sec)                           

ABERRATIONS AND CORRECTIONS

 Geometric state vectors have NO corrections or aberrations applied.

Computations by ...

    Solar System Dynamics Group, Horizons On-Line Ephemeris System
    4800 Oak Grove Drive, Jet Propulsion Laboratory
    Pasadena, CA  91109   USA

    General site: https://ssd.jpl.nasa.gov/
    Mailing list: https://ssd.jpl.nasa.gov/email_list.html
    System news : https://ssd.jpl.nasa.gov/horizons/news.html
    User Guide  : https://ssd.jpl.nasa.gov/horizons/manual.html
    Connect     : browser        https://ssd.jpl.nasa.gov/horizons/app.html#/x
                  API            https://ssd-api.jpl.nasa.gov/doc/horizons.html
                  command-line   telnet ssd.jpl.nasa.gov 6775
                  e-mail/batch   https://ssd.jpl.nasa.gov/ftp/ssd/hrzn_batch.txt
                  scripts        https://ssd.jpl.nasa.gov/ftp/ssd/SCRIPTS
    Author      : Jon.D.Giorgini@jpl.nasa.gov
*******************************************************************************
